[{"OBJECT_NAME":"STARLINK-30269","OBJECT_ID":"2023-115H","EPOCH":"2026-03-09T03:29:50.983008","MEAN_MOTION":15.2673766,"ECCENTRICITY":0.00012961,"INCLINATION":43.0008,"RA_OF_ASC_NODE":5.0718,"ARG_OF_PERICENTER":296.3214,"MEAN_ANOMALY":63.7504,"EPHEMERIS_TYPE":0,"CLASSIFICATION_TYPE":"U","NORAD_CAT_ID":57528,"ELEMENT_SET_NO":999,"REV_AT_EPOCH":14226,"BSTAR":6.4078136e-5,"MEAN_MOTION_DOT":1.459e-5,"MEAN_MOTION_DDOT":0},{"OBJECT_NAME":"FLOCK 4G-17","OBJECT_ID":"2025-009CA","EPOCH":"2026-03-09T22:51:51.984864","MEAN_MOTION":15.27385439,"ECCENTRICITY":0.00036407,"INCLINATION":97.3966,"RA_OF_ASC_NODE":151.0229,"ARG_OF_PERICENTER":339.6132,"MEAN_ANOMALY":20.4962,"EPHEMERIS_TYPE":0,"CLASSIFICATION_TYPE":"U","NORAD_CAT_ID":62681,"ELEMENT_SET_NO":999,"REV_AT_EPOCH":12139,"BSTAR":0.00053710713,"MEAN_MOTION_DOT":0.00014342,"MEAN_MOTION_DDOT":0}]
